SUOMI-100               
1 43804U 18099AY  26068.68271181  .00014037  00000+0  54773-3 0  9995
2 43804  97.4315 129.5602 0008969 269.9465  90.0745 15.25995383398238
STARLINK-35984          
1 66814U 25278Z   26068.17476774  .00024951  00000+0  91288-3 0  9995
2 66814  43.0013 116.9847 0002461 285.4958  74.5622 15.27588008 15138
